{"fetched_at":"2026-07-12T05:53:04.218Z","source":"https://celestrak.org/NORAD/elements/gp.php?NAME=LEGION&FORMAT=JSON","constellation":"maxar-legion","records":[{"OBJECT_NAME":"LEGION 1","OBJECT_ID":"2024-081A","EPOCH":"2026-07-11T20:01:57.100224","CLASSIFICATION_TYPE":"U","MEAN_MOTION":15.16830282,"ECCENTRICITY":0.0007683,"INCLINATION":97.5015,"RA_OF_ASC_NODE":270.43,"ARG_OF_PERICENTER":283.6761,"MEAN_ANOMALY":76.3616,"EPHEMERIS_TYPE":0,"NORAD_CAT_ID":59625,"ELEMENT_SET_NO":999,"REV_AT_EPOCH":12127,"BSTAR":0.00011762,"MEAN_MOTION_DOT":0.00002246,"MEAN_MOTION_DDOT":0},{"OBJECT_NAME":"LEGION 2","OBJECT_ID":"2024-081B","EPOCH":"2026-07-11T19:10:38.351136","CLASSIFICATION_TYPE":"U","MEAN_MOTION":15.16809052,"ECCENTRICITY":0.0010052,"INCLINATION":97.5014,"RA_OF_ASC_NODE":270.4916,"ARG_OF_PERICENTER":246.7666,"MEAN_ANOMALY":113.2509,"EPHEMERIS_TYPE":0,"NORAD_CAT_ID":59626,"ELEMENT_SET_NO":999,"REV_AT_EPOCH":12127,"BSTAR":0.00010331,"MEAN_MOTION_DOT":0.00001964,"MEAN_MOTION_DDOT":0},{"OBJECT_NAME":"LEGION 3","OBJECT_ID":"2024-146A","EPOCH":"2026-07-11T15:29:39.702624","CLASSIFICATION_TYPE":"U","MEAN_MOTION":15.15641977,"ECCENTRICITY":0.0008526,"INCLINATION":45.0012,"RA_OF_ASC_NODE":259.4148,"ARG_OF_PERICENTER":315.193,"MEAN_ANOMALY":44.8259,"EPHEMERIS_TYPE":0,"NORAD_CAT_ID":60452,"ELEMENT_SET_NO":999,"REV_AT_EPOCH":10573,"BSTAR":0.00012017,"MEAN_MOTION_DOT":0.00002061,"MEAN_MOTION_DDOT":0},{"OBJECT_NAME":"LEGION 4","OBJECT_ID":"2024-146B","EPOCH":"2026-07-11T20:14:06.834624","CLASSIFICATION_TYPE":"U","MEAN_MOTION":15.15665292,"ECCENTRICITY":0.0008943,"INCLINATION":45.0029,"RA_OF_ASC_NODE":350.2228,"ARG_OF_PERICENTER":92.4321,"MEAN_ANOMALY":267.7582,"EPHEMERIS_TYPE":0,"NORAD_CAT_ID":60453,"ELEMENT_SET_NO":999,"REV_AT_EPOCH":10461,"BSTAR":0.00016484,"MEAN_MOTION_DOT":0.00002928,"MEAN_MOTION_DDOT":0},{"OBJECT_NAME":"LEGION 5","OBJECT_ID":"2025-025A","EPOCH":"2026-07-11T10:45:57.337056","CLASSIFICATION_TYPE":"U","MEAN_MOTION":15.16058136,"ECCENTRICITY":0.00085112,"INCLINATION":44.9998,"RA_OF_ASC_NODE":171.3082,"ARG_OF_PERICENTER":283.798,"MEAN_ANOMALY":76.1951,"EPHEMERIS_TYPE":0,"NORAD_CAT_ID":62900,"ELEMENT_SET_NO":999,"REV_AT_EPOCH":7817,"BSTAR":0.000093440963,"MEAN_MOTION_DOT":0.00001564,"MEAN_MOTION_DDOT":0},{"OBJECT_NAME":"LEGION 6","OBJECT_ID":"2025-025B","EPOCH":"2026-07-10T23:39:08.673120","CLASSIFICATION_TYPE":"U","MEAN_MOTION":15.15671893,"ECCENTRICITY":0.00107838,"INCLINATION":45.0016,"RA_OF_ASC_NODE":82.9268,"ARG_OF_PERICENTER":255.0974,"MEAN_ANOMALY":104.8711,"EPHEMERIS_TYPE":0,"NORAD_CAT_ID":62901,"ELEMENT_SET_NO":999,"REV_AT_EPOCH":7924,"BSTAR":0.00010954381,"MEAN_MOTION_DOT":0.00001857,"MEAN_MOTION_DDOT":0}]}
